{"spkid": "50753718", "covariance": {"labels": ["e", "q", "tp", "node", "peri", "i"], "data": [["1.244700648053862E-15", "-2.885549709527567E-15", "-1.298218389119904E-13", "-4.099169488372315E-13", "3.574323191715758E-13", "1.641243774763968E-15"], ["-2.885549709527567E-15", "6.728139932062732E-15", "3.252031132979266E-13", "9.745548908674962E-13", "-8.214027604274358E-13", "-9.667196418079413E-16"], ["-1.298218389119904E-13", "3.252031132979266E-13", "1.11126630704472E-10", "7.933127108504687E-11", "1.174374711053676E-11", "2.458136305569761E-12"], ["-4.099169488372315E-13", "9.745548908674962E-13", "7.933127108504687E-11", "2.197063395079414E-9", "-2.107501723812247E-9", "-1.261764876748065E-10"], ["3.574323191715758E-13", "-8.214027604274358E-13", "1.174374711053676E-11", "-2.107501723812247E-9", "2.116347064247899E-9", "1.295177258614046E-10"], ["1.641243774763968E-15", "-9.667196418079413E-16", "2.458136305569761E-12", "-1.261764876748065E-10", "1.295177258614046E-10", "2.275056624760259E-11"]], "elements": [{"label": "e", "sigma": 3.52803153054768e-08, "name": "e", "units": null, "title": "eccentricity", "value": ".5622770816158168"}, {"label": "q", "title": "perihelion distance", "value": ".9843725099741212", "units": "au", "sigma": 8.20252396038118e-08, "name": "q"}, {"label": "tp", "sigma": 1.05416616671411e-05, "name": "tp", "value": "2457612.071137320947", "title": "time of perihelion passage", "units": "TDB"}, {"label": "node", "units": "deg", "value": "320.9774698896924", "title": "longitude of the ascending node", "sigma": 4.68728428312111e-05, "name": "om"}, {"label": "peri", "name": "w", "sigma": 4.6003772282802e-05, "value": "25.30226879025859", "title": "argument of perihelion", "units": "deg"}, {"units": "deg", "title": "inclination", "value": "6.327481855988583", "name": "i", "sigma": 4.76975536559293e-06, "label": "i"}], "epoch": "2457919.5"}, "elements": [{"value": ".5617796096027352", "title": "eccentricity", "units": null, "sigma": "3.5342E-8", "name": "e", "label": "e"}, {"label": "a", "value": "2.249828951172252", "title": "semi-major axis", "units": "au", "sigma": "1.5577E-8", "name": "a"}, {"units": "au", "value": ".9859209213097729", "title": "perihelion distance", "sigma": "8.2247E-8", "name": "q", "label": "q"}, {"value": "6.321851377996429", "title": "inclination; angle with respect to x-y ecliptic plane", "units": "deg", "sigma": "4.7682E-6", "name": "i", "label": "i"}, {"units": "deg", "title": "longitude of the ascending node", "value": "320.900715614245", "name": "om", "sigma": "4.6904E-5", "label": "node"}, {"units": "deg", "title": "argument of perihelion", "value": "25.32472458792981", "name": "w", "sigma": "4.6041E-5", "label": "peri"}, {"units": "deg", "title": "mean anomaly", "value": "328.4118676449704", "sigma": "1.2632E-5", "name": "ma", "label": "M"}, {"units": "TDB", "title": "time of perihelion passage", "value": "2461308.654383657071", "sigma": "4.435E-5", "name": "tp", "label": "tp"}, {"title": "sidereal orbital period", "value": "1232.601461806458", "units": "d", "name": "per", "sigma": "1.2801E-5", "label": "period"}, {"label": "n", "units": "deg/d", "title": "mean motion", "value": ".2920652061148756", "name": "n", "sigma": "3.0332E-9"}, {"label": "Q", "sigma": "2.4328E-8", "name": "ad", "units": "au", "title": "aphelion distance", "value": "3.51373698103473"}], "epoch": "2461200.5"}